COSMOS 2426 (717)       
1 29671U 06062B   19320.78087179  .00000023  00000-0  10000-3 0  9990
2 29671  65.0528 275.1316 0020510 178.5739  55.9132  2.12961988100345
COSMOS 2433 (720)       
1 32275U 07052A   19321.13799409 -.00000045  00000-0  10000-3 0  9995
2 32275  65.9093  36.0305 0004238 230.0322 309.5437  2.13104491 93861
COSMOS 2432 (719)       
1 32276U 07052B   19321.44568918 -.00000046  00000-0  10000-3 0  9990
2 32276  65.9241  36.1105 0009226 321.7130  44.6217  2.13103661 93875
COSMOS 2434 (721)       
1 32393U 07065A   19320.77021314  .00000022  00000-0  00000+0 0  9991
2 32393  64.6584 273.7528 0001231 121.1197  23.7166  2.13103118 92565
COSMOS 2436 (723)       
1 32395U 07065C   19320.78026993  .00000022  00000-0  10000-3 0  9997
2 32395  64.6681 273.8038 0014904 331.5670 265.7471  2.13280876 92492
COSMOS 2456 (730)       
1 36111U 09070A   19320.75465991  .00000092  00000-0  00000+0 0  9999
2 36111  64.2051 153.4066 0002714 349.8646 316.3504  2.13102974 77220
COSMOS 2457 (733)       
1 36112U 09070B   19321.37184716  .00000094  00000-0  00000+0 0  9994
2 36112  64.1914 153.2834 0006605 148.2490  35.7542  2.13101587 77245
COSMOS 2459 (731)       
1 36400U 10007A   19321.51896109 -.00000047  00000-0  10000-3 0  9992
2 36400  65.8144  35.0197 0023940 348.4435 338.1389  2.13102061 75594
COSMOS 2461 (735)       
1 36401U 10007B   19320.63159339 -.00000044  00000-0  10000-3 0  9999
2 36401  65.8065  35.0190 0005823  79.1092 197.2265  2.13101915 75579
COSMOS 2460 (732)       
1 36402U 10007C   19320.56843307 -.00000044  00000-0  10000-3 0  9997
2 36402  65.7976  34.9841 0001923 196.5861  70.8457  2.13101431 75578
COSMOS 2464 (736)       
1 37139U 10041C   19320.57145508  .00000022  00000-0  00000+0 0  9992
2 37139  64.2595 273.3064 0025055   6.3776 211.1457  2.13100702 71642
COSMOS 2474 (742)       
1 37829U 11055A   19320.60119932  .00000092  00000-0  00000+0 0  9997
2 37829  64.5301 154.3476 0007990 241.4607 162.7288  2.13101931 63227
COSMOS 2476 (744)       
1 37867U 11064A   19321.41758264  .00000094  00000-0  00000+0 0  9998
2 37867  64.5075 154.3690 0017423 234.1965 122.4778  2.13101958 62587
COSMOS 2477 (745)       
1 37868U 11064B   19320.71950824  .00000092  00000-0  00000-0 0  9996
2 37868  64.5175 154.4451 0015035 234.6848 125.0666  2.13101829 62523
COSMOS 2475 (743)       
1 37869U 11064C   19321.26323313  .00000094  00000-0  00000+0 0  9996
2 37869  64.5241 154.4278 0018680 261.3648 112.7597  2.13102087 62555
COSMOS 2485 (747)       
1 39155U 13019A   19321.41115575  .00000094  00000-0  00000+0 0  9994
2 39155  64.6776 154.5912 0018067 229.2663 167.1586  2.13102049 51068
COSMOS 2492 (754)       
1 39620U 14012A   19321.23746389 -.00000046  00000-0  10000-3 0  9991
2 39620  65.6875  34.7732 0012574 319.6070 338.6478  2.13103362 44008
COSMOS 2500 (755)       
1 40001U 14032A   19320.90715794 -.00000045  00000-0  00000+0 0  9991
2 40001  65.6283  34.7174 0008203 204.1605  61.7444  2.13102485 42215
COSMOS 2501 (702K)      
1 40315U 14075A   19321.11199947  .00000021  00000-0  00000+0 0  9999
2 40315  63.9785 274.3095 0017028 212.0532   7.7037  2.13098547 38628
COSMOS 2514 (751)       
1 41330U 16008A   19320.70112478 -.00000045  00000-0  00000-0 0  9991
2 41330  65.4310  34.6483 0011571 212.2832  77.5696  2.13103030 29379
COSMOS 2516 (753)       
1 41554U 16032A   19320.78057086  .00000022  00000-0  00000-0 0  9991
2 41554  64.2008 274.3323 0014092 225.2778  16.1285  2.13101743 26984
COSMOS 2522 (752)       
1 42939U 17055A   19321.33950639  .00000021  00000-0  00000+0 0  9991
2 42939  64.4339 274.4313 0009466 251.8250 284.8990  2.13102061 16755
COSMOS 2527 (756)       
1 43508U 18053A   19320.57232573  .00000093  00000-0  00000+0 0  9997
2 43508  64.8369 154.4231 0005822 216.7572 122.9139  2.13102681 11020
COSMOS 2529 (757)       
1 43687U 18086A   19320.57151204  .00000022  00000-0  00000-0 0  9995
2 43687  64.6474 274.5197 0012097 271.0554 352.1588  2.13102056  8043
COSMOS 2534 (758)       
1 44299U 19030A   19320.68436600  .00000023  00000-0  00000+0 0  9993
2 44299  64.7167 274.3124 0015155 286.7827 198.1677  2.13101933  3691
